JY1SAT (JO-97)          
1 43803U 18099AX  26068.68634132  .00017774  00000+0  60804-3 0  9996
2 43803  97.4249 131.3625 0004723 256.6795 103.3919 15.30302628398390
STARLINK-35585          
1 66170U 25240AA  26068.42474381  .00017501  00000+0  60128-3 0  9991
2 66170  53.1589  64.3324 0001644  80.3548 279.7639 15.30217853 21942
